start=new Date('2022-03-07T00:00:00.000Z').valueOf();
sats=[{"RCS_SIZE":"LARGE","TLE_LINE2":"2 45398  53.0526 238.1276 0001432  89.6564 270.4589 15.06398628109125","ECCENTRICITY":"0.00014320","FILE":"3348068","NORAD_CAT_ID":"45398","MEAN_MOTION_DDOT":"0.0000000000000","MEAN_MOTION_DOT":"-0.00001245","TIME_SYSTEM":"UTC","SITE":"AFETR","CENTER_NAME":"EARTH","OBJECT_NAME":"STARLINK-1312","APOAPSIS":"548.209","EPHEMERIS_TYPE":"0","PERIOD":"95.592","MEAN_ELEMENT_THEORY":"SGP4","SEMIMAJOR_AXIS":"6925.353","ARG_OF_PERICENTER":"89.6564","MEAN_MOTION":"15.06398628","ELEMENT_SET_NO":"999","TLE_LINE1":"1 45398U 20019AQ  22065.83046192 -.00001245  00000-0 -64676-4 0  9996","BSTAR":"-0.00006467600000","OBJECT_TYPE":"PAYLOAD","OBJECT_ID":"2020-019AQ","RA_OF_ASC_NODE":"238.1276","LAUNCH_DATE":"2020-03-18","INCLINATION":"53.0526","CLASSIFICATION_TYPE":"U","EPOCH":"2022-03-06T19:55:51.909888","REV_AT_EPOCH":"10912","REF_FRAME":"TEME","DECAY_DATE":null,"GP_ID":"198080854","COUNTRY_CODE":"US","MEAN_ANOMALY":"270.4589","PERIAPSIS":"546.226"},{"DECAY_DATE":null,"REF_FRAME":"TEME","REV_AT_EPOCH":"10930","EPOCH":"2022-03-06T17:44:30.330816","CLASSIFICATION_TYPE":"U","LAUNCH_DATE":"2020-03-18","INCLINATION":"53.0535","PERIAPSIS":"546.171","MEAN_ANOMALY":"292.1943","COUNTRY_CODE":"US","GP_ID":"198081062","OBJECT_NAME":"STARLINK-1255","CENTER_NAME":"EARTH","SITE":"AFETR","TIME_SYSTEM":"UTC","MEAN_MOTION_DOT":"-0.00000615","MEAN_MOTION_DDOT":"0.0000000000000","NORAD_CAT_ID":"45399","ECCENTRICITY":"0.00015290","FILE":"3348056","TLE_LINE2":"2 45399  53.0535 228.5403 0001529  67.9208 292.1943 15.06394621109306","RCS_SIZE":"LARGE","RA_OF_ASC_NODE":"228.5403","OBJECT_ID":"2020-019AR","OBJECT_TYPE":"PAYLOAD","TLE_LINE1":"1 45399U 20019AR  22065.73923994 -.00000615  00000-0 -22399-4 0  9996","BSTAR":"-0.00002239900000","ELEMENT_SET_NO":"999","MEAN_MOTION":"15.06394621","ARG_OF_PERICENTER":"67.9208","SEMIMAJOR_AXIS":"6925.365","PERIOD":"95.592","MEAN_ELEMENT_THEORY":"SGP4","EPHEMERIS_TYPE":"0","APOAPSIS":"548.289"},{"GP_ID":"198080662","PERIAPSIS":"546.260","MEAN_ANOMALY":"289.8761","COUNTRY_CODE":"US","CLASSIFICATION_TYPE":"U","INCLINATION":"53.0518","LAUNCH_DATE":"2020-03-18","EPOCH":"2022-03-06T21:16:50.486880","REF_FRAME":"TEME","REV_AT_EPOCH":"10925","DECAY_DATE":null,"PERIOD":"95.593","MEAN_ELEMENT_THEORY":"SGP4","EPHEMERIS_TYPE":"0","APOAPSIS":"548.257","SEMIMAJOR_AXIS":"6925.393","ELEMENT_SET_NO":"999","MEAN_MOTION":"15.06385373","ARG_OF_PERICENTER":"70.2383","RA_OF_ASC_NODE":"227.8941","OBJECT_TYPE":"PAYLOAD","OBJECT_ID":"2020-019AS","TLE_LINE1":"1 45400U 20019AS  22065.88669545 -.00000070  00000-0  14223-4 0  9995","BSTAR":"0.00001422300000","ECCENTRICITY":"0.00014420","FILE":"3348056","TLE_LINE2":"2 45400  53.0518 227.8941 0001442  70.2383 289.8761 15.06385373109253","RCS_SIZE":"LARGE","MEAN_MOTION_DDOT":"0.0000000000000","NORAD_CAT_ID":"45400","MEAN_MOTION_DOT":"-0.00000070","CENTER_NAME":"EARTH","OBJECT_NAME":"STARLINK-1213","TIME_SYSTEM":"UTC","SITE":"AFETR"},{"EPHEMERIS_TYPE":"0","MEAN_ELEMENT_THEORY":"SGP4","PERIOD":"95.592","APOAPSIS":"548.316","SEMIMAJOR_AXIS":"6925.350","MEAN_MOTION":"15.06399455","ELEMENT_SET_NO":"999","ARG_OF_PERICENTER":"69.9805","RA_OF_ASC_NODE":"228.2011","TLE_LINE1":"1 45401U 20019AT  22065.81664111 -.00000291  00000-0 -61567-6 0  9994","BSTAR":"-0.00000061567000","OBJECT_ID":"2020-019AT","OBJECT_TYPE":"PAYLOAD","ECCENTRICITY":"0.00015890","FILE":"3348056","RCS_SIZE":"LARGE","TLE_LINE2":"2 45401  53.0538 228.2011 0001589  69.9805 290.1354 15.06399455109311","MEAN_MOTION_DDOT":"0.0000000000000","NORAD_CAT_ID":"45401","MEAN_MOTION_DOT":"-0.00000291","TIME_SYSTEM":"UTC","SITE":"AFETR","CENTER_NAME":"EARTH","OBJECT_NAME":"STARLINK-1256","GP_ID":"198080664","MEAN_ANOMALY":"290.1354","PERIAPSIS":"546.115","COUNTRY_CODE":"US","CLASSIFICATION_TYPE":"U","INCLINATION":"53.0538","LAUNCH_DATE":"2020-03-18","EPOCH":"2022-03-06T19:35:57.791904","REV_AT_EPOCH":"10931","REF_FRAME":"TEME","DECAY_DATE":null},{"ECCENTRICITY":"0.00014550","FILE":"3347638","TLE_LINE2":"2 45402  53.0535 229.1047 0001455  86.9530 273.1626 15.06401259109290","RCS_SIZE":"LARGE","MEAN_MOTION_DDOT":"0.0000000000000","NORAD_CAT_ID":"45402","MEAN_MOTION_DOT":"0.00000023","CENTER_NAME":"EARTH","OBJECT_NAME":"STARLINK-1257","TIME_SYSTEM":"UTC","SITE":"AFETR","MEAN_ELEMENT_THEORY":"SGP4","PERIOD":"95.592","EPHEMERIS_TYPE":"0","APOAPSIS":"548.217","SEMIMAJOR_AXIS":"6925.345","ELEMENT_SET_NO":"999","MEAN_MOTION":"15.06401259","ARG_OF_PERICENTER":"86.9530","RA_OF_ASC_NODE":"229.1047","OBJECT_ID":"2020-019AU","OBJECT_TYPE":"PAYLOAD","TLE_LINE1":"1 45402U 20019AU  22065.61391302  .00000023  00000-0  20446-4 0  9992","BSTAR":"0.00002044600000","CLASSIFICATION_TYPE":"U","INCLINATION":"53.0535","LAUNCH_DATE":"2020-03-18","EPOCH":"2022-03-06T14:44:02.084928","REF_FRAME":"TEME","REV_AT_EPOCH":"10929","DECAY_DATE":null,"GP_ID":"198064160","PERIAPSIS":"546.202","MEAN_ANOMALY":"273.1626","COUNTRY_CODE":"US"},{"MEAN_MOTION_DOT":"0.00004646","OBJECT_NAME":"STARLINK-1259","CENTER_NAME":"EARTH","SITE":"AFETR","TIME_SYSTEM":"UTC","ECCENTRICITY":"0.00017010","FILE":"3348081","TLE_LINE2":"2 45403  53.0539 228.1590 0001701  72.6519 287.4656 15.06393838109317","RCS_SIZE":"LARGE","MEAN_MOTION_DDOT":"0.0000000000000","NORAD_CAT_ID":"45403","ELEMENT_SET_NO":"999","MEAN_MOTION":"15.06393838","ARG_OF_PERICENTER":"72.6519","RA_OF_ASC_NODE":"228.1590","OBJECT_TYPE":"PAYLOAD","OBJECT_ID":"2020-019AV","TLE_LINE1":"1 45403U 20019AV  22065.82768636  .00004646  00000-0  33063-3 0  9997","BSTAR":"0.00033063000000","PERIOD":"95.593","MEAN_ELEMENT_THEORY":"SGP4","EPHEMERIS_TYPE":"0","APOAPSIS":"548.410","SEMIMAJOR_AXIS":"6925.367","REF_FRAME":"TEME","REV_AT_EPOCH":"10931","DECAY_DATE":null,"CLASSIFICATION_TYPE":"U","INCLINATION":"53.0539","LAUNCH_DATE":"2020-03-18","EPOCH":"2022-03-06T19:51:52.101504","PERIAPSIS":"546.054","MEAN_ANOMALY":"287.4656","COUNTRY_CODE":"US","GP_ID":"198080668"},{"SEMIMAJOR_AXIS":"6925.333","MEAN_ELEMENT_THEORY":"SGP4","PERIOD":"95.592","EPHEMERIS_TYPE":"0","APOAPSIS":"548.244","RA_OF_ASC_NODE":"229.2784","OBJECT_TYPE":"PAYLOAD","OBJECT_ID":"2020-019AW","BSTAR":"0.00033494000000","TLE_LINE1":"1 45404U 20019AW  22065.57337837  .00004712  00000-0  33494-3 0  9997","ELEMENT_SET_NO":"999","MEAN_MOTION":"15.06405079","ARG_OF_PERICENTER":"74.3365","MEAN_MOTION_DDOT":"0.0000000000000","NORAD_CAT_ID":"45404","FILE":"3347638","ECCENTRICITY":"0.00015100","TLE_LINE2":"2 45404  53.0545 229.2784 0001510  74.3365 285.7790 15.06405079109184","RCS_SIZE":"LARGE","CENTER_NAME":"EARTH","OBJECT_NAME":"STARLINK-1260","SITE":"AFETR","TIME_SYSTEM":"UTC","MEAN_MOTION_DOT":"0.00004712","GP_ID":"198065162","PERIAPSIS":"546.152","MEAN_ANOMALY":"285.7790","COUNTRY_CODE":"US","EPOCH":"2022-03-06T13:45:39.891168","CLASSIFICATION_TYPE":"U","LAUNCH_DATE":"2020-03-18","INCLINATION":"53.0545","DECAY_DATE":null,"REF_FRAME":"TEME","REV_AT_EPOCH":"10918"},{"MEAN_MOTION_DOT":"-0.00000206","SITE":"AFETR","TIME_SYSTEM":"UTC","OBJECT_NAME":"STARLINK-1263","CENTER_NAME":"EARTH","ECCENTRICITY":"0.00013270","FILE":"3348059","RCS_SIZE":"LARGE","TLE_LINE2":"2 45405  53.0532 228.1614 0001327  85.8984 274.2157 15.06403218109229","MEAN_MOTION_DDOT":"0.0000000000000","NORAD_CAT_ID":"45405","MEAN_MOTION":"15.06403218","ELEMENT_SET_NO":"999","ARG_OF_PERICENTER":"85.8984","RA_OF_ASC_NODE":"228.1614","TLE_LINE1":"1 45405U 20019AX  22065.82400845 -.00000206  00000-0  50600-5 0  9991","BSTAR":"0.00000506000000","OBJECT_ID":"2020-019AX","OBJECT_TYPE":"PAYLOAD","EPHEMERIS_TYPE":"0","PERIOD":"95.592","MEAN_ELEMENT_THEORY":"SGP4","APOAPSIS":"548.123","SEMIMAJOR_AXIS":"6925.339","REV_AT_EPOCH":"10922","REF_FRAME":"TEME","DECAY_DATE":null,"CLASSIFICATION_TYPE":"U","INCLINATION":"53.0532","LAUNCH_DATE":"2020-03-18","EPOCH":"2022-03-06T19:46:34.330080","MEAN_ANOMALY":"274.2157","PERIAPSIS":"546.285","COUNTRY_CODE":"US","GP_ID":"198081110"},{"EPOCH":"2022-03-06T19:57:11.049696","CLASSIFICATION_TYPE":"U","LAUNCH_DATE":"2020-03-18","INCLINATION":"53.0529","DECAY_DATE":null,"REF_FRAME":"TEME","REV_AT_EPOCH":"10922","GP_ID":"198080714","PERIAPSIS":"546.103","MEAN_ANOMALY":"280.9335","COUNTRY_CODE":"US","MEAN_MOTION_DDOT":"0.0000000000000","NORAD_CAT_ID":"45406","ECCENTRICITY":"0.00015500","FILE":"3348059","TLE_LINE2":"2 45406  53.0529 228.1215 0001550  79.1828 280.9335 15.06412200109227","RCS_SIZE":"LARGE","CENTER_NAME":"EARTH","OBJECT_NAME":"STARLINK-1265","TIME_SYSTEM":"UTC","SITE":"AFETR","MEAN_MOTION_DOT":"0.00004915","SEMIMAJOR_AXIS":"6925.311","MEAN_ELEMENT_THEORY":"SGP4","PERIOD":"95.591","EPHEMERIS_TYPE":"0","APOAPSIS":"548.250","RA_OF_ASC_NODE":"228.1215","OBJECT_TYPE":"PAYLOAD","OBJECT_ID":"2020-019AY","TLE_LINE1":"1 45406U 20019AY  22065.83137789  .00004915  00000-0  34850-3 0  9994","BSTAR":"0.00034850000000","ELEMENT_SET_NO":"999","MEAN_MOTION":"15.06412200","ARG_OF_PERICENTER":"79.1828"},{"MEAN_ANOMALY":"275.9168","PERIAPSIS":"546.081","COUNTRY_CODE":"US","GP_ID":"198064911","DECAY_DATE":null,"REV_AT_EPOCH":"10917","REF_FRAME":"TEME","EPOCH":"2022-03-06T12:19:22.680480","CLASSIFICATION_TYPE":"U","INCLINATION":"53.0539","LAUNCH_DATE":"2020-03-18","RA_OF_ASC_NODE":"229.5587","TLE_LINE1":"1 45407U 20019AZ  22065.51345695  .00008776  00000-0  60710-3 0  9990","BSTAR":"0.00060710000000","OBJECT_TYPE":"PAYLOAD","OBJECT_ID":"2020-019AZ","MEAN_MOTION":"15.06414445","ELEMENT_SET_NO":"999","ARG_OF_PERICENTER":"84.2001","SEMIMAJOR_AXIS":"6925.304","EPHEMERIS_TYPE":"0","PERIOD":"95.591","MEAN_ELEMENT_THEORY":"SGP4","APOAPSIS":"548.258","SITE":"AFETR","TIME_SYSTEM":"UTC","OBJECT_NAME":"STARLINK-1275","CENTER_NAME":"EARTH","MEAN_MOTION_DOT":"0.00008776","MEAN_MOTION_DDOT":"0.0000000000000","NORAD_CAT_ID":"45407","FILE":"3347638","ECCENTRICITY":"0.00015720","RCS_SIZE":"LARGE","TLE_LINE2":"2 45407  53.0539 229.5587 0001572  84.2001 275.9168 15.06414445109175"}];
